{
    "links": {
        "self": "http://www.neowsapp.com/rest/v1/neo/3825433?api_key=iIulBulltgU6a56xZRHN4H3l9WmuAYTsLGpBGhQ2"
    },
    "id": "3825433",
    "neo_reference_id": "3825433",
    "name": "(2018 MF5)",
    "designation": "2018 MF5",
    "nasa_jpl_url": "http://ssd.jpl.nasa.gov/sbdb.cgi?sstr=3825433",
    "absolute_magnitude_h": 23.2,
    "estimated_diameter": {
        "kilometers": {
            "estimated_diameter_min": 0.0608912622,
            "estimated_diameter_max": 0.1361570015
        },
        "meters": {
            "estimated_diameter_min": 60.8912622106,
            "estimated_diameter_max": 136.1570015386
        },
        "miles": {
            "estimated_diameter_min": 0.0378360645,
            "estimated_diameter_max": 0.0846040122
        },
        "feet": {
            "estimated_diameter_min": 199.7744887109,
            "estimated_diameter_max": 446.7093369279
        }
    },
    "is_potentially_hazardous_asteroid": false,
    "close_approach_data": [
        {
            "close_approach_date": "2007-06-26",
            "close_approach_date_full": "2007-Jun-26 07:43",
            "epoch_date_close_approach": 1182843780000,
            "relative_velocity": {
                "kilometers_per_second": "14.1819550334",
                "kilometers_per_hour": "51055.0381203278",
                "miles_per_hour": "31723.615214267"
            },
            "miss_distance": {
                "astronomical": "0.0766433554",
                "lunar": "29.8142652506",
                "kilometers": "11465682.717492998",
                "miles": "7124444.8757514524"
            },
            "orbiting_body": "Earth"
        },
        {
            "close_approach_date": "2018-06-23",
            "close_approach_date_full": "2018-Jun-23 18:18",
            "epoch_date_close_approach": 1529777880000,
            "relative_velocity": {
                "kilometers_per_second": "14.6660682345",
                "kilometers_per_hour": "52797.8456442115",
                "miles_per_hour": "32806.5280337602"
            },
            "miss_distance": {
                "astronomical": "0.1145835231",
                "lunar": "44.5729904859",
                "kilometers": "17141450.992855797",
                "miles": "10651203.7440801186"
            },
            "orbiting_body": "Earth"
        }
    ],
    "orbital_data": {
        "orbit_id": "6",
        "orbit_determination_date": "2018-07-16 06:20:39",
        "first_observation_date": "2018-06-12",
        "last_observation_date": "2018-07-12",
        "data_arc_in_days": 30,
        "observations_used": 31,
        "orbit_uncertainty": "7",
        "minimum_orbit_intersection": ".0698796",
        "jupiter_tisserand_invariant": "4.406",
        "epoch_osculation": "2459000.5",
        "eccentricity": ".2848532431565788",
        "semi_major_axis": "1.496692159171011",
        "inclination": "25.30240456014832",
        "ascending_node_longitude": "273.8853920322452",
        "orbital_period": "668.8013670032841",
        "perihelion_distance": "1.070354543624126",
        "perihelion_argument": "21.78570374804585",
        "aphelion_distance": "1.923029774717896",
        "perihelion_time": "2458980.524033466634",
        "mean_anomaly": "10.75259158669831",
        "mean_motion": ".5382764117439853",
        "equinox": "J2000",
        "orbit_class": {
            "orbit_class_type": "AMO",
            "orbit_class_description": "Near-Earth asteroid orbits similar to that of 1221 Amor",
            "orbit_class_range": "1.017 AU < q (perihelion) < 1.3 AU"
        }
    },
    "is_sentry_object": false
}